{
    "links": {
        "self": "http://www.neowsapp.com/rest/v1/neo/3613394?api_key=iIulBulltgU6a56xZRHN4H3l9WmuAYTsLGpBGhQ2"
    },
    "id": "3613394",
    "neo_reference_id": "3613394",
    "name": "(2012 UZ68)",
    "designation": "2012 UZ68",
    "nasa_jpl_url": "http://ssd.jpl.nasa.gov/sbdb.cgi?sstr=3613394",
    "absolute_magnitude_h": 24.7,
    "estimated_diameter": {
        "kilometers": {
            "estimated_diameter_min": 0.0305179233,
            "estimated_diameter_max": 0.0682401509
        },
        "meters": {
            "estimated_diameter_min": 30.5179232594,
            "estimated_diameter_max": 68.2401509401
        },
        "miles": {
            "estimated_diameter_min": 0.0189629525,
            "estimated_diameter_max": 0.0424024508
        },
        "feet": {
            "estimated_diameter_min": 100.1244233463,
            "estimated_diameter_max": 223.8850168104
        }
    },
    "is_potentially_hazardous_asteroid": false,
    "close_approach_data": [
        {
            "close_approach_date": "2012-10-17",
            "close_approach_date_full": "2012-Oct-17 15:09",
            "epoch_date_close_approach": 1350486540000,
            "relative_velocity": {
                "kilometers_per_second": "10.0000735601",
                "kilometers_per_hour": "36000.2648162653",
                "miles_per_hour": "22369.1645465289"
            },
            "miss_distance": {
                "astronomical": "0.0422411423",
                "lunar": "16.4318043547",
                "kilometers": "6319184.914446901",
                "miles": "3926559.4288571938"
            },
            "orbiting_body": "Earth"
        }
    ],
    "orbital_data": {
        "orbit_id": "6",
        "orbit_determination_date": "2019-07-17 06:09:44",
        "first_observation_date": "2012-10-22",
        "last_observation_date": "2012-10-25",
        "data_arc_in_days": 3,
        "observations_used": 36,
        "orbit_uncertainty": "8",
        "minimum_orbit_intersection": ".016106",
        "jupiter_tisserand_invariant": "3.735",
        "epoch_osculation": "2456223.5",
        "eccentricity": ".5003097837810313",
        "semi_major_axis": "1.940758994360572",
        "inclination": "4.892633399100362",
        "ascending_node_longitude": "207.299936868659",
        "orbital_period": "987.5425981332178",
        "perihelion_distance": ".9697782815209423",
        "perihelion_argument": "143.5649906301518",
        "aphelion_distance": "2.911739707200201",
        "perihelion_time": "2456192.210004670865",
        "mean_anomaly": "11.40649359306833",
        "mean_motion": ".364541236682366",
        "equinox": "J2000",
        "orbit_class": {
            "orbit_class_type": "APO",
            "orbit_class_description": "Near-Earth asteroid orbits which cross the Earth’s orbit similar to that of 1862 Apollo",
            "orbit_class_range": "a (semi-major axis) > 1.0 AU; q (perihelion) < 1.017 AU"
        }
    },
    "is_sentry_object": false
}